PLEIADES 1A             
1 38012U 11076F   26198.31212274 -.00000089  00000+0 -93011-5 0  9994
2 38012  98.1971 273.0087 0001656  78.9089 350.8570 14.58546755776386
PLEIADES 1B             
1 39019U 12068A   26198.33283969  .00000123  00000+0  36238-4 0  9999
2 39019  98.1942 272.9676 0001552  78.4292 281.7081 14.58534988725243
